start=new Date('2023-04-08T00:00:00.000Z').valueOf();
sats=[{"TLE_LINE1":"1 49167U 21082AP  23097.43900726  .00000364  00000-0  38291-4 0  9992","EPHEMERIS_TYPE":"0","ELEMENT_SET_NO":"999","REV_AT_EPOCH":"8731","MEAN_MOTION":"14.98332650","REF_FRAME":"TEME","PERIOD":"96.107","OBJECT_TYPE":"PAYLOAD","TIME_SYSTEM":"UTC","BSTAR":"0.00003829100000","ARG_OF_PERICENTER":"266.7852","TLE_LINE2":"2 49167  69.9987 105.3709 0002950 266.7852  93.2969 14.98332650 87312","MEAN_ELEMENT_THEORY":"SGP4","OBJECT_NAME":"STARLINK-3054","RA_OF_ASC_NODE":"105.3709","CLASSIFICATION_TYPE":"U","OBJECT_ID":"2021-082AP","SEMIMAJOR_AXIS":"6950.185","LAUNCH_DATE":"2021-09-14","COUNTRY_CODE":"US","RCS_SIZE":"LARGE","DECAY_DATE":null,"ECCENTRICITY":"0.00029500","SITE":"AFWTR","GP_ID":"229682873","CENTER_NAME":"EARTH","PERIAPSIS":"569.999","INCLINATION":"69.9987","MEAN_ANOMALY":"93.2969","EPOCH":"2023-04-07T10:32:10.227264","NORAD_CAT_ID":"49167","APOAPSIS":"574.100","MEAN_MOTION_DDOT":"0.0000000000000","MEAN_MOTION_DOT":"0.00000364","FILE":"3882626"},{"NORAD_CAT_ID":"49168","EPOCH":"2023-04-07T16:02:17.606976","FILE":"3882716","MEAN_MOTION_DOT":"-0.00000132","MEAN_MOTION_DDOT":"0.0000000000000","APOAPSIS":"574.226","GP_ID":"229689959","CENTER_NAME":"EARTH","INCLINATION":"69.9998","PERIAPSIS":"569.899","MEAN_ANOMALY":"90.4841","COUNTRY_CODE":"US","LAUNCH_DATE":"2021-09-14","SEMIMAJOR_AXIS":"6950.198","OBJECT_ID":"2021-082AQ","DECAY_DATE":null,"ECCENTRICITY":"0.00031130","SITE":"AFWTR","RCS_SIZE":"LARGE","OBJECT_NAME":"STARLINK-3101","MEAN_ELEMENT_THEORY":"SGP4","CLASSIFICATION_TYPE":"U","RA_OF_ASC_NODE":"84.7870","TLE_LINE2":"2 49168  69.9998  84.7870 0003113 269.5961  90.4841 14.98328439 87844","ARG_OF_PERICENTER":"269.5961","BSTAR":"-0.00000327520000","OBJECT_TYPE":"PAYLOAD","TIME_SYSTEM":"UTC","REV_AT_EPOCH":"8784","TLE_LINE1":"1 49168U 21082AQ  23097.66825934 -.00000132  00000-0 -32752-5 0  9997","ELEMENT_SET_NO":"999","EPHEMERIS_TYPE":"0","PERIOD":"96.107","REF_FRAME":"TEME","MEAN_MOTION":"14.98328439"},{"OBJECT_TYPE":"PAYLOAD","TIME_SYSTEM":"UTC","REV_AT_EPOCH":"8660","EPHEMERIS_TYPE":"0","TLE_LINE1":"1 49169U 21082AR  23097.40956734  .00000265  00000-0  30018-4 0  9990","ELEMENT_SET_NO":"999","PERIOD":"96.107","REF_FRAME":"TEME","MEAN_MOTION":"14.98329661","TLE_LINE2":"2 49169  69.9990  85.4582 0002942 268.0717  92.0105 14.98329661 86609","ARG_OF_PERICENTER":"268.0717","BSTAR":"0.00003001800000","COUNTRY_CODE":"US","LAUNCH_DATE":"2021-09-14","SEMIMAJOR_AXIS":"6950.194","OBJECT_ID":"2021-082AR","DECAY_DATE":null,"ECCENTRICITY":"0.00029420","SITE":"AFWTR","RCS_SIZE":"LARGE","OBJECT_NAME":"STARLINK-3046","MEAN_ELEMENT_THEORY":"SGP4","CLASSIFICATION_TYPE":"U","RA_OF_ASC_NODE":"85.4582","NORAD_CAT_ID":"49169","EPOCH":"2023-04-07T09:49:46.618176","FILE":"3882626","MEAN_MOTION_DOT":"0.00000265","MEAN_MOTION_DDOT":"0.0000000000000","APOAPSIS":"574.104","GP_ID":"229681872","CENTER_NAME":"EARTH","INCLINATION":"69.9990","PERIAPSIS":"570.014","MEAN_ANOMALY":"92.0105"},{"GP_ID":"229690366","CENTER_NAME":"EARTH","MEAN_ANOMALY":"89.7362","PERIAPSIS":"569.748","INCLINATION":"69.9981","NORAD_CAT_ID":"49170","EPOCH":"2023-04-07T17:56:47.258880","FILE":"3882740","MEAN_MOTION_DOT":"0.00000299","MEAN_MOTION_DDOT":"0.0000000000000","APOAPSIS":"574.362","OBJECT_NAME":"STARLINK-3074","MEAN_ELEMENT_THEORY":"SGP4","CLASSIFICATION_TYPE":"U","RA_OF_ASC_NODE":"104.5968","COUNTRY_CODE":"US","LAUNCH_DATE":"2021-09-14","SEMIMAJOR_AXIS":"6950.190","OBJECT_ID":"2021-082AS","SITE":"AFWTR","DECAY_DATE":null,"ECCENTRICITY":"0.00033190","RCS_SIZE":"LARGE","TLE_LINE2":"2 49170  69.9981 104.5968 0003319 270.3417  89.7362 14.98330978 86166","ARG_OF_PERICENTER":"270.3417","BSTAR":"0.00003282400000","REV_AT_EPOCH":"8616","EPHEMERIS_TYPE":"0","TLE_LINE1":"1 49170U 21082AS  23097.74776920  .00000299  00000-0  32824-4 0  9990","ELEMENT_SET_NO":"999","PERIOD":"96.107","REF_FRAME":"TEME","MEAN_MOTION":"14.98330978","OBJECT_TYPE":"PAYLOAD","TIME_SYSTEM":"UTC"},{"PERIOD":"96.107","MEAN_MOTION":"14.98330980","REF_FRAME":"TEME","REV_AT_EPOCH":"8727","TLE_LINE1":"1 49171U 21082AT  23097.43082546  .00001474  00000-0  13127-3 0  9991","EPHEMERIS_TYPE":"0","ELEMENT_SET_NO":"999","TIME_SYSTEM":"UTC","OBJECT_TYPE":"PAYLOAD","TLE_LINE2":"2 49171  69.9994 105.3840 0002916 271.0134  89.0691 14.98330980 87279","ARG_OF_PERICENTER":"271.0134","BSTAR":"0.00013127000000","CLASSIFICATION_TYPE":"U","RA_OF_ASC_NODE":"105.3840","OBJECT_NAME":"STARLINK-3107","MEAN_ELEMENT_THEORY":"SGP4","DECAY_DATE":null,"ECCENTRICITY":"0.00029160","SITE":"AFWTR","RCS_SIZE":"LARGE","COUNTRY_CODE":"US","LAUNCH_DATE":"2021-09-14","SEMIMAJOR_AXIS":"6950.190","OBJECT_ID":"2021-082AT","MEAN_ANOMALY":"89.0691","PERIAPSIS":"570.028","INCLINATION":"69.9994","GP_ID":"229683374","CENTER_NAME":"EARTH","FILE":"3882626","MEAN_MOTION_DOT":"0.00001474","MEAN_MOTION_DDOT":"0.0000000000000","APOAPSIS":"574.082","NORAD_CAT_ID":"49171","EPOCH":"2023-04-07T10:20:23.319744"},{"GP_ID":"229683120","CENTER_NAME":"EARTH","INCLINATION":"69.9989","PERIAPSIS":"569.934","MEAN_ANOMALY":"90.6981","EPOCH":"2023-04-07T09:01:42.481632","NORAD_CAT_ID":"49172","APOAPSIS":"574.177","MEAN_MOTION_DDOT":"0.0000000000000","MEAN_MOTION_DOT":"0.00001177","FILE":"3882626","MEAN_ELEMENT_THEORY":"SGP4","OBJECT_NAME":"STARLINK-3091","RA_OF_ASC_NODE":"85.5268","CLASSIFICATION_TYPE":"U","OBJECT_ID":"2021-082AU","SEMIMAJOR_AXIS":"6950.190","LAUNCH_DATE":"2021-09-14","COUNTRY_CODE":"US","RCS_SIZE":"LARGE","DECAY_DATE":null,"SITE":"AFWTR","ECCENTRICITY":"0.00030530","BSTAR":"0.00010640000000","ARG_OF_PERICENTER":"269.3828","TLE_LINE2":"2 49172  69.9989  85.5268 0003053 269.3828  90.6981 14.98330795 86598","TLE_LINE1":"1 49172U 21082AU  23097.37618613  .00001177  00000-0  10640-3 0  9992","ELEMENT_SET_NO":"999","EPHEMERIS_TYPE":"0","REV_AT_EPOCH":"8659","REF_FRAME":"TEME","MEAN_MOTION":"14.98330795","PERIOD":"96.107","OBJECT_TYPE":"PAYLOAD","TIME_SYSTEM":"UTC"},{"RA_OF_ASC_NODE":"85.4748","CLASSIFICATION_TYPE":"U","OBJECT_NAME":"STARLINK-3045","MEAN_ELEMENT_THEORY":"SGP4","DECAY_DATE":null,"SITE":"AFWTR","ECCENTRICITY":"0.00031650","RCS_SIZE":"LARGE","LAUNCH_DATE":"2021-09-14","COUNTRY_CODE":"US","OBJECT_ID":"2021-082AV","SEMIMAJOR_AXIS":"6950.190","INCLINATION":"69.9985","PERIAPSIS":"569.856","MEAN_ANOMALY":"90.7523","GP_ID":"229682373","CENTER_NAME":"EARTH","MEAN_MOTION_DOT":"0.00000301","FILE":"3882626","APOAPSIS":"574.255","MEAN_MOTION_DDOT":"0.0000000000000","NORAD_CAT_ID":"49173","EPOCH":"2023-04-07T09:31:45.002496","MEAN_MOTION":"14.98330781","REF_FRAME":"TEME","PERIOD":"96.107","TLE_LINE1":"1 49173U 21082AV  23097.39704864  .00000301  00000-0  32998-4 0  9998","EPHEMERIS_TYPE":"0","ELEMENT_SET_NO":"999","REV_AT_EPOCH":"8660","TIME_SYSTEM":"UTC","OBJECT_TYPE":"PAYLOAD","ARG_OF_PERICENTER":"269.3274","TLE_LINE2":"2 49173  69.9985  85.4748 0003165 269.3274  90.7523 14.98330781 86606","BSTAR":"0.00003299800000"},{"EPOCH":"2023-04-07T16:44:35.099808","NORAD_CAT_ID":"49174","MEAN_MOTION_DDOT":"0.0000000000000","APOAPSIS":"569.060","FILE":"3882744","MEAN_MOTION_DOT":"-0.00077066","GP_ID":"229690433","CENTER_NAME":"EARTH","INCLINATION":"69.9987","PERIAPSIS":"564.147","MEAN_ANOMALY":"93.7612","SEMIMAJOR_AXIS":"6944.739","OBJECT_ID":"2021-082AW","COUNTRY_CODE":"US","LAUNCH_DATE":"2021-09-14","RCS_SIZE":"LARGE","DECAY_DATE":null,"SITE":"AFWTR","ECCENTRICITY":"0.00035370","MEAN_ELEMENT_THEORY":"SGP4","OBJECT_NAME":"STARLINK-3047","CLASSIFICATION_TYPE":"U","RA_OF_ASC_NODE":"84.4898","BSTAR":"-0.00622920000000","TLE_LINE2":"2 49174  69.9987  84.4898 0003537 266.3144  93.7612 15.00095417 87825","ARG_OF_PERICENTER":"266.3144","OBJECT_TYPE":"PAYLOAD","TIME_SYSTEM":"UTC","REV_AT_EPOCH":"8782","ELEMENT_SET_NO":"999","TLE_LINE1":"1 49174U 21082AW  23097.69762847 -.00077066  00000-0 -62292-2 0  9999","EPHEMERIS_TYPE":"0","PERIOD":"95.994","MEAN_MOTION":"15.00095417","REF_FRAME":"TEME"},{"BSTAR":"0.00019884000000","TLE_LINE2":"2 49175  69.9991  85.5824 0003022 265.1870  94.8944 14.98319653 86594","ARG_OF_PERICENTER":"265.1870","PERIOD":"96.108","REF_FRAME":"TEME","MEAN_MOTION":"14.98319653","REV_AT_EPOCH":"8659","TLE_LINE1":"1 49175U 21082AX  23097.35950142  .00002280  00000-0  19884-3 0  9994","EPHEMERIS_TYPE":"0","ELEMENT_SET_NO":"999","TIME_SYSTEM":"UTC","OBJECT_TYPE":"PAYLOAD","INCLINATION":"69.9991","PERIAPSIS":"569.990","MEAN_ANOMALY":"94.8944","CENTER_NAME":"EARTH","GP_ID":"229682874","MEAN_MOTION_DDOT":"0.0000000000000","APOAPSIS":"574.190","FILE":"3882626","MEAN_MOTION_DOT":"0.00002280","EPOCH":"2023-04-07T08:37:40.922688","NORAD_CAT_ID":"49175","CLASSIFICATION_TYPE":"U","RA_OF_ASC_NODE":"85.5824","MEAN_ELEMENT_THEORY":"SGP4","OBJECT_NAME":"STARLINK-3087","RCS_SIZE":"LARGE","DECAY_DATE":null,"SITE":"AFWTR","ECCENTRICITY":"0.00030220","SEMIMAJOR_AXIS":"6950.225","OBJECT_ID":"2021-082AX","COUNTRY_CODE":"US","LAUNCH_DATE":"2021-09-14"},{"INCLINATION":"69.9993","PERIAPSIS":"569.998","MEAN_ANOMALY":"97.4569","GP_ID":"229683621","CENTER_NAME":"EARTH","MEAN_MOTION_DOT":"0.00000460","FILE":"3882626","APOAPSIS":"574.117","MEAN_MOTION_DDOT":"0.0000000000000","NORAD_CAT_ID":"49176","EPOCH":"2023-04-07T08:19:18.950304","RA_OF_ASC_NODE":"65.6063","CLASSIFICATION_TYPE":"U","OBJECT_NAME":"STARLINK-3069","MEAN_ELEMENT_THEORY":"SGP4","DECAY_DATE":null,"SITE":"AFWTR","ECCENTRICITY":"0.00029630","RCS_SIZE":"LARGE","LAUNCH_DATE":"2021-09-14","COUNTRY_CODE":"US","OBJECT_ID":"2021-082AY","SEMIMAJOR_AXIS":"6950.193","ARG_OF_PERICENTER":"262.6254","TLE_LINE2":"2 49176  69.9993  65.6063 0002963 262.6254  97.4569 14.98330077 87082","BSTAR":"0.00004631600000","MEAN_MOTION":"14.98330077","REF_FRAME":"TEME","PERIOD":"96.107","ELEMENT_SET_NO":"999","TLE_LINE1":"1 49176U 21082AY  23097.34674711  .00000460  00000-0  46316-4 0  9998","EPHEMERIS_TYPE":"0","REV_AT_EPOCH":"8708","TIME_SYSTEM":"UTC","OBJECT_TYPE":"PAYLOAD"}];
